TWILIGHT AF             
1 67392U 26004AF  26023.94693885  .00021250  00000+0  10598-2 0  9998
2 67392  97.4495  25.1136 0007318 107.7433 252.4600 15.17525587  1870
TWILIGHT AG             
1 67393U 26004AG  26023.94601829  .00019908  00000+0  98878-3 0  9991
2 67393  97.4525  25.1207 0007394 113.4527 246.7484 15.17684050  1873
TWILIGHT AH             
1 67394U 26004AH  26023.94049990  .00014893  00000+0  73075-3 0  9997
2 67394  97.4461  25.1169 0010701 114.6097 245.6253 15.18146761  1876
TWILIGHT AJ             
1 67395U 26004AJ  26023.92160519  .00004580  00000+0  50771-3 0  9997
2 67395  97.8003  24.8847 0004007 235.3663 124.7176 14.87765645  1823
TWILIGHT AK             
1 67396U 26004AK  26023.94380235  .00016721  00000+0  82964-3 0  9998
2 67396  97.4500  25.1194 0008565 113.6617 246.5517 15.17749685  1878
TWILIGHT AL             
1 67397U 26004AL  26023.94539419  .00019686  00000+0  98057-3 0  9992
2 67397  97.4522  25.1210 0007683 114.2627 245.9410 15.17584650  1874
TWILIGHT AM             
1 67398U 26004AM  26023.94344367  .00016166  00000+0  80104-3 0  9993
2 67398  97.4559  25.1291 0008294 121.7438 238.4605 15.17804874  1872
TWILIGHT AN             
1 67399U 26004AN  26023.94216925  .00031194  00000+0  15323-2 0  9990
2 67399  97.4551  25.1300 0009306 121.8954 238.3186 15.17960613  1872
TWILIGHT AP             
1 67400U 26004AP  26023.93959782  .00015327  00000+0  74948-3 0  9996
2 67400  97.4546  25.1317 0010651 123.7704 236.4546 15.18260649  1878
TWILIGHT AQ             
1 67401U 26004AQ  26023.93875622  .00023525  00000+0  11436-2 0  9998
2 67401  97.4489  25.1235 0011558 118.6540 241.5858 15.18364647  1878
TWILIGHT AR             
1 67402U 26004AR  26023.95152540  .00014768  00000+0  75406-3 0  9995
2 67402  97.4546  25.1170 0004848  99.5329 260.6452 15.16791319  1866
SHIJIAN-29B (SJ-29B)    
1 67403U 25315C   26023.95824809 -.00000053  00000+0  00000+0 0  9991
2 67403   3.0312  98.9199 0001159 317.6189 124.7834  1.00274762   241
