CCSDS_OMM_VERS = 2.0
CREATION_DATE  = 
ORIGINATOR     = 

OBJECT_NAME    = TWILIGHT AF
OBJECT_ID      = 2026-004AF
CENTER_NAME    = EARTH
REF_FRAME      = TEME
TIME_SYSTEM    = UTC
MEAN_ELEMENT_THEORY = SGP/SGP4

EPOCH          = 2026-01-23T22:43:35.516640
MEAN_MOTION    = 15.17525587
ECCENTRICITY   = .00073181
INCLINATION    = 97.4495
RA_OF_ASC_NODE = 25.1136
ARG_OF_PERICENTER = 107.7433
MEAN_ANOMALY   = 252.4600

EPHEMERIS_TYPE = 0
CLASSIFICATION_TYPE = U
NORAD_CAT_ID   = 67392
ELEMENT_SET_NO = 999
REV_AT_EPOCH   = 187
BSTAR          = .1059838E-2
MEAN_MOTION_DOT = .2125E-3
MEAN_MOTION_DDOT = 0

CCSDS_OMM_VERS = 2.0
CREATION_DATE  = 
ORIGINATOR     = 

OBJECT_NAME    = TWILIGHT AG
OBJECT_ID      = 2026-004AG
CENTER_NAME    = EARTH
REF_FRAME      = TEME
TIME_SYSTEM    = UTC
MEAN_ELEMENT_THEORY = SGP/SGP4

EPOCH          = 2026-01-23T22:42:15.980256
MEAN_MOTION    = 15.17684050
ECCENTRICITY   = .00073945
INCLINATION    = 97.4525
RA_OF_ASC_NODE = 25.1207
ARG_OF_PERICENTER = 113.4527
MEAN_ANOMALY   = 246.7484

EPHEMERIS_TYPE = 0
CLASSIFICATION_TYPE = U
NORAD_CAT_ID   = 67393
ELEMENT_SET_NO = 999
REV_AT_EPOCH   = 187
BSTAR          = .9887806E-3
MEAN_MOTION_DOT = .19908E-3
MEAN_MOTION_DDOT = 0

CCSDS_OMM_VERS = 2.0
CREATION_DATE  = 
ORIGINATOR     = 

OBJECT_NAME    = TWILIGHT AH
OBJECT_ID      = 2026-004AH
CENTER_NAME    = EARTH
REF_FRAME      = TEME
TIME_SYSTEM    = UTC
MEAN_ELEMENT_THEORY = SGP/SGP4

EPOCH          = 2026-01-23T22:34:19.191360
MEAN_MOTION    = 15.18146761
ECCENTRICITY   = .0010701
INCLINATION    = 97.4461
RA_OF_ASC_NODE = 25.1169
ARG_OF_PERICENTER = 114.6097
MEAN_ANOMALY   = 245.6253

EPHEMERIS_TYPE = 0
CLASSIFICATION_TYPE = U
NORAD_CAT_ID   = 67394
ELEMENT_SET_NO = 999
REV_AT_EPOCH   = 187
BSTAR          = .7307517E-3
MEAN_MOTION_DOT = .14893E-3
MEAN_MOTION_DDOT = 0

CCSDS_OMM_VERS = 2.0
CREATION_DATE  = 
ORIGINATOR     = 

OBJECT_NAME    = TWILIGHT AJ
OBJECT_ID      = 2026-004AJ
CENTER_NAME    = EARTH
REF_FRAME      = TEME
TIME_SYSTEM    = UTC
MEAN_ELEMENT_THEORY = SGP/SGP4

EPOCH          = 2026-01-23T22:07:06.688416
MEAN_MOTION    = 14.87765645
ECCENTRICITY   = .00040077
INCLINATION    = 97.8003
RA_OF_ASC_NODE = 24.8847
ARG_OF_PERICENTER = 235.3663
MEAN_ANOMALY   = 124.7176

EPHEMERIS_TYPE = 0
CLASSIFICATION_TYPE = U
NORAD_CAT_ID   = 67395
ELEMENT_SET_NO = 999
REV_AT_EPOCH   = 182
BSTAR          = .50771486E-3
MEAN_MOTION_DOT = .458E-4
MEAN_MOTION_DDOT = 0

CCSDS_OMM_VERS = 2.0
CREATION_DATE  = 
ORIGINATOR     = 

OBJECT_NAME    = TWILIGHT AK
OBJECT_ID      = 2026-004AK
CENTER_NAME    = EARTH
REF_FRAME      = TEME
TIME_SYSTEM    = UTC
MEAN_ELEMENT_THEORY = SGP/SGP4

EPOCH          = 2026-01-23T22:39:04.523040
MEAN_MOTION    = 15.17749685
ECCENTRICITY   = .0008565
INCLINATION    = 97.4500
RA_OF_ASC_NODE = 25.1194
ARG_OF_PERICENTER = 113.6617
MEAN_ANOMALY   = 246.5517

EPHEMERIS_TYPE = 0
CLASSIFICATION_TYPE = U
NORAD_CAT_ID   = 67396
ELEMENT_SET_NO = 999
REV_AT_EPOCH   = 187
BSTAR          = .829642E-3
MEAN_MOTION_DOT = .16721E-3
MEAN_MOTION_DDOT = 0

CCSDS_OMM_VERS = 2.0
CREATION_DATE  = 
ORIGINATOR     = 

OBJECT_NAME    = TWILIGHT AL
OBJECT_ID      = 2026-004AL
CENTER_NAME    = EARTH
REF_FRAME      = TEME
TIME_SYSTEM    = UTC
MEAN_ELEMENT_THEORY = SGP/SGP4

EPOCH          = 2026-01-23T22:41:22.058016
MEAN_MOTION    = 15.17584650
ECCENTRICITY   = .00076833
INCLINATION    = 97.4522
RA_OF_ASC_NODE = 25.1210
ARG_OF_PERICENTER = 114.2627
MEAN_ANOMALY   = 245.9410

EPHEMERIS_TYPE = 0
CLASSIFICATION_TYPE = U
NORAD_CAT_ID   = 67397
ELEMENT_SET_NO = 999
REV_AT_EPOCH   = 187
BSTAR          = .9805655E-3
MEAN_MOTION_DOT = .19686E-3
MEAN_MOTION_DDOT = 0

CCSDS_OMM_VERS = 2.0
CREATION_DATE  = 
ORIGINATOR     = 

OBJECT_NAME    = TWILIGHT AM
OBJECT_ID      = 2026-004AM
CENTER_NAME    = EARTH
REF_FRAME      = TEME
TIME_SYSTEM    = UTC
MEAN_ELEMENT_THEORY = SGP/SGP4

EPOCH          = 2026-01-23T22:38:33.533088
MEAN_MOTION    = 15.17804874
ECCENTRICITY   = .00082947
INCLINATION    = 97.4559
RA_OF_ASC_NODE = 25.1291
ARG_OF_PERICENTER = 121.7438
MEAN_ANOMALY   = 238.4605

EPHEMERIS_TYPE = 0
CLASSIFICATION_TYPE = U
NORAD_CAT_ID   = 67398
ELEMENT_SET_NO = 999
REV_AT_EPOCH   = 187
BSTAR          = .80104226E-3
MEAN_MOTION_DOT = .16166E-3
MEAN_MOTION_DDOT = 0

CCSDS_OMM_VERS = 2.0
CREATION_DATE  = 
ORIGINATOR     = 

OBJECT_NAME    = TWILIGHT AN
OBJECT_ID      = 2026-004AN
CENTER_NAME    = EARTH
REF_FRAME      = TEME
TIME_SYSTEM    = UTC
MEAN_ELEMENT_THEORY = SGP/SGP4

EPOCH          = 2026-01-23T22:36:43.423200
MEAN_MOTION    = 15.17960613
ECCENTRICITY   = .00093062
INCLINATION    = 97.4551
RA_OF_ASC_NODE = 25.1300
ARG_OF_PERICENTER = 121.8954
MEAN_ANOMALY   = 238.3186

EPHEMERIS_TYPE = 0
CLASSIFICATION_TYPE = U
NORAD_CAT_ID   = 67399
ELEMENT_SET_NO = 999
REV_AT_EPOCH   = 187
BSTAR          = .15323064E-2
MEAN_MOTION_DOT = .31194E-3
MEAN_MOTION_DDOT = 0

CCSDS_OMM_VERS = 2.0
CREATION_DATE  = 
ORIGINATOR     = 

OBJECT_NAME    = TWILIGHT AP
OBJECT_ID      = 2026-004AP
CENTER_NAME    = EARTH
REF_FRAME      = TEME
TIME_SYSTEM    = UTC
MEAN_ELEMENT_THEORY = SGP/SGP4

EPOCH          = 2026-01-23T22:33:01.251648
MEAN_MOTION    = 15.18260649
ECCENTRICITY   = .00106517
INCLINATION    = 97.4546
RA_OF_ASC_NODE = 25.1317
ARG_OF_PERICENTER = 123.7704
MEAN_ANOMALY   = 236.4546

EPHEMERIS_TYPE = 0
CLASSIFICATION_TYPE = U
NORAD_CAT_ID   = 67400
ELEMENT_SET_NO = 999
REV_AT_EPOCH   = 187
BSTAR          = .74947505E-3
MEAN_MOTION_DOT = .15327E-3
MEAN_MOTION_DDOT = 0

CCSDS_OMM_VERS = 2.0
CREATION_DATE  = 
ORIGINATOR     = 

OBJECT_NAME    = TWILIGHT AQ
OBJECT_ID      = 2026-004AQ
CENTER_NAME    = EARTH
REF_FRAME      = TEME
TIME_SYSTEM    = UTC
MEAN_ELEMENT_THEORY = SGP/SGP4

EPOCH          = 2026-01-23T22:31:48.537408
MEAN_MOTION    = 15.18364647
ECCENTRICITY   = .00115587
INCLINATION    = 97.4489
RA_OF_ASC_NODE = 25.1235
ARG_OF_PERICENTER = 118.6540
MEAN_ANOMALY   = 241.5858

EPHEMERIS_TYPE = 0
CLASSIFICATION_TYPE = U
NORAD_CAT_ID   = 67401
ELEMENT_SET_NO = 999
REV_AT_EPOCH   = 187
BSTAR          = .11435891E-2
MEAN_MOTION_DOT = .23525E-3
MEAN_MOTION_DDOT = 0

CCSDS_OMM_VERS = 2.0
CREATION_DATE  = 
ORIGINATOR     = 

OBJECT_NAME    = TWILIGHT AR
OBJECT_ID      = 2026-004AR
CENTER_NAME    = EARTH
REF_FRAME      = TEME
TIME_SYSTEM    = UTC
MEAN_ELEMENT_THEORY = SGP/SGP4

EPOCH          = 2026-01-23T22:50:11.794560
MEAN_MOTION    = 15.16791319
ECCENTRICITY   = .00048483
INCLINATION    = 97.4546
RA_OF_ASC_NODE = 25.1170
ARG_OF_PERICENTER = 99.5329
MEAN_ANOMALY   = 260.6452

EPHEMERIS_TYPE = 0
CLASSIFICATION_TYPE = U
NORAD_CAT_ID   = 67402
ELEMENT_SET_NO = 999
REV_AT_EPOCH   = 186
BSTAR          = .75406366E-3
MEAN_MOTION_DOT = .14768E-3
MEAN_MOTION_DDOT = 0

CCSDS_OMM_VERS = 2.0
CREATION_DATE  = 
ORIGINATOR     = 

OBJECT_NAME    = SHIJIAN-29B (SJ-29B)
OBJECT_ID      = 2025-315C
CENTER_NAME    = EARTH
REF_FRAME      = TEME
TIME_SYSTEM    = UTC
MEAN_ELEMENT_THEORY = SGP/SGP4

EPOCH          = 2026-01-23T22:59:52.634976
MEAN_MOTION    = 1.00274762
ECCENTRICITY   = .00011599
INCLINATION    = 3.0312
RA_OF_ASC_NODE = 98.9199
ARG_OF_PERICENTER = 317.6189
MEAN_ANOMALY   = 124.7834

EPHEMERIS_TYPE = 0
CLASSIFICATION_TYPE = U
NORAD_CAT_ID   = 67403
ELEMENT_SET_NO = 999
REV_AT_EPOCH   = 24
BSTAR          = 0
MEAN_MOTION_DOT = -.53E-6
MEAN_MOTION_DDOT = 0

